TDRS 3                  
1 19548U 88091B   24070.32654295 -.00000304  00000+0  00000+0 0  9998
2 19548  13.2391 346.6153 0039361 340.7330 269.8035  1.00274217117071
FLTSATCOM 8 (USA 46)    
1 20253U 89077A   24069.76938091 -.00000371  00000+0  00000+0 0  9997
2 20253  12.6652 356.1651 0006881 353.7394 220.8864  1.00271733252306
SKYNET 4C               
1 20776U 90079A   24069.98452167  .00000121  00000+0  00000+0 0  9992
2 20776  13.6081 355.4842 0002689 358.3186 202.1735  1.00274025122571
TDRS 5                  
1 21639U 91054B   24070.45867581 -.00000121  00000+0  00000+0 0  9990
2 21639  14.1762 359.8346 0002366 334.7039 245.6531  1.00657011119400
TDRS 6                  
1 22314U 93003B   24070.21027161 -.00000300  00000+0  00000+0 0  9992
2 22314  14.1603   3.1376 0006964 145.6003  49.2885  1.00266624114091
UFO 2 (USA 95)          
1 22787U 93056A   24069.98521344  .00000120  00000+0  00000+0 0  9997
2 22787  11.6288   7.8731 0004311 359.8312 183.7440  1.00272097110232
USA 99 (MILSTAR-1 1)    
1 22988U 94009A   24070.41009426 -.00000201  00000+0  00000+0 0  9992
2 22988  16.3562  36.4808 0002870 308.9431 240.7974  1.00271310 24653
UFO 4 (USA 108)         
1 23467U 95003A   24070.34703024 -.00000029  00000+0  00000+0 0  9995
2 23467   9.7232  15.7722 0001304 357.1472  92.7239  1.00274113106646
AMSC 1                  
1 23553U 95019A   24070.44841125 -.00000099  00000+0  00000+0 0  9991
2 23553  12.5388  22.0208 0006334 318.4929 242.0419  1.00273310105862
TDRS 7                  
1 23613U 95035B   24070.57870972 -.00000206  00000+0  00000+0 0  9992
2 23613  13.7231 353.9242 0025851  60.4813  47.4826  1.00268676104940
USA 115 (MILSTAR-1 2)   
1 23712U 95060A   24070.42004877 -.00000024  00000+0  00000+0 0  9995
2 23712  13.7643   9.7299 0003022 321.2627 228.7662  1.00269966 24577
INMARSAT 3-F1           
1 23839U 96020A   24070.16254885  .00000096  00000+0  00000+0 0  9997
2 23839   8.8582  53.6596 0003589 297.0050 261.5404  0.99991966101967
INMARSAT 3-F2           
1 24307U 96053A   24070.44563324 -.00000145  00000+0  00000+0 0  9992
2 24307   7.9605  61.8181 0005715 316.0468 220.0587  0.99980212100630
INMARSAT 3-F3           
1 24674U 96070A   24070.22202310 -.00000201  00000+0  00000+0 0  9992
2 24674   8.5079  57.0203 0004827 281.8535  66.7645  1.00008707 99616
GALAXY 25 (G-25)        
1 24812U 97026A   24070.34638155 -.00000038  00000+0  00000+0 0  9999
2 24812   5.2876  77.1618 0010292 299.9848 115.5895  0.99092621 98010
INTELSAT 5 (IS-5)       
1 24916U 97046A   24070.26218976 -.00000070  00000+0  00000+0 0  9998
2 24916   8.5876  56.2793 0002980 246.7778 125.8877  1.00272558 97318
AMC-3 (GE-3)            
1 24936U 97050A   24070.46519522 -.00000268  00000+0  00000+0 0  9997
2 24936   6.1005  73.2023 0002928 280.3717 270.4996  1.00271150 44129
USA 134                 
1 25019U 97065A   24070.47618684 -.00000065  00000+0  00000+0 0  9991
2 25019  11.7924  27.4922 0004150 322.6175 237.5700  1.00268347 24646
INMARSAT 3-F5           
1 25153U 98006B   24070.41034429 -.00000296  00000+0  00000+0 0  9995
2 25153   7.8212  60.9192 0004999 289.4822 271.9001  1.00270668 95588
ASTRA 2A                
1 25462U 98050A   24070.52697209  .00000060  00000+0  00000+0 0  9998
2 25462   4.9958  78.5804 0003330 267.0933  69.8988  1.00271363 38021
SKYNET 4E               
1 25639U 99009B   24070.08570914 -.00000039  00000+0  00000+0 0  9990
2 25639  11.5787  13.5955 0003466 330.0401 214.2411  1.00274225 43076
ABS-6                   
1 25924U 99053A   24070.53868959 -.00000131  00000+0  00000+0 0  9998
2 25924   0.0328 272.9137 0002886  56.7421 191.9540  1.00271845 89539
UFO 10 (USA 146)        
1 25967U 99063A   24070.22459597 -.00000193  00000+0  00000+0 0  9994
2 25967   9.4056  31.0591 0003506 278.4970 276.7796  1.00275207 89033
GALAXY 11 (G-11)        
1 26038U 99071A   24070.59632777 -.00000064  00000+0  00000+0 0  9993
2 26038   4.6134  80.5219 0000817 308.1707 161.0230  1.00270680 88773
USA 148                 
1 26052U 00001A   24070.34675380  .00000031  00000+0  00000+0 0  9997
2 26052  10.5493  38.3973 0002086 287.6913 147.4354  1.00270678 24650
ASIASTAR                
1 26107U 00016A   24070.46486543 -.00000341  00000+0  00000+0 0  9993
2 26107   7.1722  66.4848 0004258 285.7261  88.7561  1.00272564 87617
USA 149 (DSP 20)        
1 26356U 00024A   24070.52513684  .00000090  00000+0  00000+0 0  9992
2 26356  12.5449  17.4351 0001385 268.6301 265.9406  1.00277153 24603
TDRS 8                  
1 26388U 00034A   24070.52540576  .00000090  00000+0  00000+0 0  9998
2 26388  11.3837  38.0168 0005204 269.7397 242.5103  1.00266740 86874
INTELSAT 9 (IS-9)       
1 26451U 00043A   24070.29464920 -.00000220  00000+0  00000+0 0  9997
2 26451   8.5719  56.4749 0003958 270.3828 276.8597  1.00378091 35832
NSS-11 (AAP-1)          
1 26554U 00059A   24070.54979882  .00000013  00000+0  00000+0 0  9993
2 26554   0.0443 314.2665 0002899  39.7995 188.5472  1.00269953 85869
USA 153                 
1 26575U 00065A   24070.32745672 -.00000330  00000+0  00000+0 0  9990
2 26575  10.1837  41.6855 0001849 305.0085  74.1563  1.00273601 24629
AMC-6 (GE-6)            
1 26580U 00067A   24070.48109757  .00000093  00000+0  00000+0 0  9998
2 26580   0.0185 139.3995 0002419 218.9069 204.5173  1.00271164 85587
INTELSAT 1R (IS-1R)     
1 26608U 00072A   24070.33198190 -.00000147  00000+0  00000+0 0  9999
2 26608   6.0051  73.6937 0001608 290.1502  81.2594  1.00271197 33019
ANIK F1                 
1 26624U 00076A   24070.49877854 -.00000071  00000+0  00000+0 0  9995
2 26624   3.0486  84.9319 0004951 298.2913 215.7721  1.00270631 34833
USA 157 (MILSTAR-2 2)   
1 26715U 01009A   24070.48956353  .00000007  00000+0  00000+0 0  9992
2 26715  10.6436  24.3400 0002807 317.9824 238.3261  1.00274192 24644
INTELSAT 10 (IS-10)     
1 26766U 01019A   24070.33241700 -.00000152  00000+0  00000+0 0  9998
2 26766   7.0865  67.5986 0003131 273.9249 105.8279  1.00163902 37318
INTELSAT 901 (IS-901)   
1 26824U 01024A   24070.29534537 -.00000213  00000+0  00000+0 0  9995
2 26824   0.0340 257.6011 0000742 135.6200 214.0627  1.00271062 14672
ASTRA 2C                
1 26853U 01025A   24070.46519536 -.00000267  00000+0  00000+0 0  9998
2 26853   6.1229  73.0303 0002777 271.1578 279.4042  1.00272606 36737
USA 159 (DSP 21)        
1 26880U 01033A   24070.28880373 -.00000302  00000+0  00000+0 0  9997
2 26880  12.0029  21.9089 0000789 313.8564 247.6448  1.00269994 24655
INTELSAT 902 (IS-902)   
1 26900U 01039A   24070.43452156 -.00000291  00000+0  00000+0 0  9994
2 26900   4.0083  81.7872 0002329 296.3994 256.7238  1.00270853 82385
USA 164 (MILSTAR-2 3)   
1 27168U 02001A   24070.53452216  .00000047  00000+0  00000+0 0  9997
2 27168  10.2017  26.3072 0100651 358.1095 355.5981  1.00269077 24645
INTELSAT 904 (IS-904)   
1 27380U 02007A   24070.43806247 -.00000222  00000+0  00000+0 0  9991
2 27380   4.8290  78.9599 0003148 292.6420 285.1803  1.00278335 43455
DIRECTV 5 (TEMPO 1)     
1 27426U 02023A   24070.42205030 -.00000066  00000+0  00000+0 0  9998
2 27426   2.7454  85.6402 0003463 274.3351 210.4118  1.00271767 79814
INTELSAT 905 (IS-905)   
1 27438U 02027A   24070.43910675 -.00000194  00000+0  00000+0 0  9996
2 27438   4.6538  79.6269 0002724 269.1083 313.4349  1.00270864 43052
GALAXY 3C (G-3C)        
1 27445U 02030A   24070.42696196 -.00000162  00000+0  00000+0 0  9991
2 27445   1.5893  88.2264 0001562 341.2978 157.8992  1.00270783 38187
INTELSAT 906 (IS-906)   
1 27513U 02041A   24070.52836446  .00000005  00000+0  00000+0 0  9999
2 27513   3.6827  83.0587 0003334 247.6061  92.3533  1.00272179 78713
TDRS 10                 
1 27566U 02055A   24070.40621318  .00000081  00000+0  00000+0 0  9993
2 27566   9.3773  46.0740 0006989 316.9197 140.6505  1.00274123 77922
NIMIQ 2                 
1 27632U 02062A   24070.49877903 -.00000074  00000+0  00000+0 0  9990
2 27632   7.4981  65.1309 0005008 283.7495 250.1341  1.00271128 35877
USA 167                 
1 27691U 03008A   24070.48672361  .00000046  00000+0  00000+0 0  9994
2 27691   9.2985  50.2405 0001679 263.5353 259.9919  1.00271607 24640
USA 169 (MILSTAR-2 4)   
1 27711U 03012A   24070.25931801 -.00000201  00000+0  00000+0 0  9998
2 27711  11.0795  36.0582 0099722 358.5464  19.3078  1.00270932 24649
ASIASAT 4               
1 27718U 03014A   24070.54489875 -.00000232  00000+0  00000+0 0  9992
2 27718   2.5726  86.1728 0003067 260.7770 165.4531  1.00272850 36993
HELLAS-SAT 2            
1 27811U 03020A   24070.37035889 -.00000091  00000+0  00000+0 0  9999
2 27811   5.2716  77.6129 0006439 255.5991 318.6431  1.00271362 34535
THURAYA-2               
1 27825U 03026A   24070.58814060  .00000119  00000+0  00000+0 0  9999
2 27825   7.5815  34.3392 0003036 298.8378  91.2813  1.00273370 76047
OPTUS C1                
1 27831U 03028B   24070.40334045 -.00000159  00000+0  00000+0 0  9994
2 27831   4.7945  79.3059 0006016 271.0865 119.0829  1.00271742 44751
GALAXY 23 (G-23)        
1 27854U 03034A   24070.51728418  .00000002  00000+0  00000+0 0  9995
2 27854   1.0490  90.3783 0002735 258.7016 244.9088  1.00271463 75436
USA 170                 
1 27875U 03040A   24070.16080839  .00000088  00000+0  00000+0 0  9998
2 27875   8.7238  55.2138 0003120 358.0689 189.1321  1.00270031 23316
GALAXY 13 (HORIZONS-1)  
1 27954U 03044A   24070.55734299  .00000122  00000+0  00000+0 0  9998
2 27954   0.0213 129.8584 0001531  63.6660  25.7933  1.00269027 38264
YAMAL 202               
1 28089U 03053A   24070.59632777 -.00000089  00000+0  00000+0 0  9993
2 28089   4.2370  80.8748 0003442 261.4880 204.5667  1.00271323 74394
UFO 11 (USA 174)        
1 28117U 03057A   24070.45894789 -.00000109  00000+0  00000+0 0  9990
2 28117   7.9133  37.0011 0002693 324.6301  47.5329  1.00272523 74143
